SPOT 6                  
1 38755U 12047A   26193.85508176  .00000027  00000+0  15714-4 0  9993
2 38755  98.2115 260.8618 0001125  82.6627 277.4700 14.58537546736794
SPOT 7                  
1 40053U 14034A   26193.86477160 -.00000002  00000+0  87579-5 0  9997
2 40053  98.0624 255.6932 0001595  95.8248 264.3135 14.60978810640885
