{"fetched_at":"2026-07-13T07:48:45.228Z","source":"https://celestrak.org/NORAD/elements/gp.php?NAME=SPOT&FORMAT=JSON","constellation":"spot","records":[{"OBJECT_NAME":"SPOT 6","OBJECT_ID":"2012-047A","EPOCH":"2026-07-12T20:31:19.064064","CLASSIFICATION_TYPE":"U","MEAN_MOTION":14.58537546,"ECCENTRICITY":0.0001125,"INCLINATION":98.2115,"RA_OF_ASC_NODE":260.8618,"ARG_OF_PERICENTER":82.6627,"MEAN_ANOMALY":277.47,"EPHEMERIS_TYPE":0,"NORAD_CAT_ID":38755,"ELEMENT_SET_NO":999,"REV_AT_EPOCH":73679,"BSTAR":0.000015714,"MEAN_MOTION_DOT":2.7e-7,"MEAN_MOTION_DDOT":0},{"OBJECT_NAME":"SPOT 7","OBJECT_ID":"2014-034A","EPOCH":"2026-07-12T20:45:16.266240","CLASSIFICATION_TYPE":"U","MEAN_MOTION":14.6097881,"ECCENTRICITY":0.0001595,"INCLINATION":98.0624,"RA_OF_ASC_NODE":255.6932,"ARG_OF_PERICENTER":95.8248,"MEAN_ANOMALY":264.3135,"EPHEMERIS_TYPE":0,"NORAD_CAT_ID":40053,"ELEMENT_SET_NO":999,"REV_AT_EPOCH":64088,"BSTAR":0.0000087579,"MEAN_MOTION_DOT":-2e-8,"MEAN_MOTION_DDOT":0}]}
